#dP2023 11  5  0  0  0.00000000      96 __u+U IGS20 EXT  IAC
## 2287      0.00000000   900.00000000 60253 0.0000000000000
+  117   C06C07C08C09C10C11C12C13C14C16C19C20C21C22C23C24C25
+        C26C27C28C29C30C32C33C34C35C36C37C38C39C40C41C42C43
+        C44C45C46E02E03E04E05E07E08E09E10E11E12E13E15E19E21
+        E24E25E26E27E30E31E33E34E36G01G02G03G04G05G06G07G08
+        G09G10G11G12G13G14G16G17G18G19G20G21G22G23G24G25G26
+        G27G28G29G30G31G32J02J03J04R01R02R03R04R05R07R08R09
+        R11R12R13R14R15R16R17R18R19R20R21R22R24R25R26  0  0
++        11 10 10 10 10  8  9 10  9 11  7  7  8  7 10  8  7
++         8  6  6  8  8  7  7  9  9  7  8 11 11  9  7  9  7
++        10  8  8  8  7  7  6  7  8  7  8  8 10  6  7  7  6
++         7  8  7  7  7  7  8  7  7  6  7  8  7  7  8  7  6
++         7  7  7  6  6  7  6  6  7  7  8  7  6  7  8  8  6
++         6  6  7  7  6  6 11  9  9  7  8  7  6  9 10  7  8
++         9 10  8  8  7  6  8  8  8  8  8  6  7  9  9  0  0
%c M  cc GPS ccc cccc cccc cccc cccc ccccc ccccc ccccc ccccc
%c cc cc ccc ccc cccc cccc cccc cccc ccccc ccccc ccccc ccccc
%f  0.0000000  0.000000000  0.00000000000  0.000000000000000
%f  0.0000000  0.000000000  0.00000000000  0.000000000000000
%i    0    0    0    0      0      0      0      0         0
%i    0    0    0    0      0      0      0      0         0
/* IAC                                ULTRA-RAPID PREDICTION
/* S/V CLOCKS ARE ALIGNED TO GNSS TIME                      
/* G:C1WC2W R:C1PC2P E:C1XC5X C:C2IC6I J:C1CC2S             
/* PCV:IGS20_2280 OL/AL:FES2004  NONE     YN ORB:CoN CLK:CoN
*  2023 11 05  9  0  0.00000000
PC06 -13747.857112  24600.164349  31302.193637     85.626229
PC07 -12127.245941  40448.959680   2081.515319   -269.516286
PC08   1224.104254  28286.531444 -31169.522038    258.125045
PC09  -3881.566361  24840.621214  34211.914879    -49.082088
PC10  -5833.141435  41704.676290  -5110.286925     -5.938535
PC11  -1350.251873  16575.027617 -22337.764701    240.130586
PC12 -19812.987954  16342.992022 -10883.116493    870.544746
PC13   6447.634431  31626.669096 -26817.383501    378.130034
PC14   1041.971772  27405.079856   5310.581538    723.118199
PC16 -18396.115003  23575.755585  29843.292504   -160.088183
PC19  -7153.068278 -23176.954243 -13770.289674   -975.064497
PC20   4228.820679 -27473.925807   2319.822706    143.664123
PC21 -14095.937265  15475.494765 -18456.915065   -969.113258
PC22 -15088.479116  -5280.010301 -22882.982051   -237.692227
PC23  24480.510068  11672.255922  -6551.013275   -828.139535
PC24  -2302.889532  17500.295948  21593.384798    565.461863
PC25  16744.576822  19978.278743   9919.167360    248.674296
PC26 -18299.302246   5297.650595  20386.214225   -201.777567
PC27  24548.604677 -12985.637601   2758.290548    223.651574
PC28  24753.020305  -1181.500474 -12817.136883    168.622858
PC29  -9705.492937 -12979.667638  22716.778853    197.216712
PC30  11059.431256 -18925.681442  17276.708098     -7.750242
PC32  14026.853055 -15439.396100  18540.458186   -532.996657
PC33   7253.638745  23222.651651  13673.521252   -947.167237
PC34  -9546.067087  18905.794773 -18169.967747    296.605027
PC35 -24739.573499   2150.416553  12692.449409    509.778535
PC36 -15629.640296 -20523.917414 -10638.778312   -148.038268
PC37  18860.011317  -4316.286462 -20091.317680   -875.903731
PC38  -6926.492031  24529.707197 -33518.885771    115.719861
PC39 -22251.890768  23754.423459  26711.475473     -5.529187
PC40 -18406.906644  37823.352910   4568.108946    -42.787399
PC41  15004.030202   6122.682600  22764.275334   -871.446167
PC42  -5104.725254  27182.914617  -3759.646784   -505.848972
PC43   8828.311487  13600.134915 -22717.958893     46.963414
PC44 -24079.322823  13837.752334  -2592.583670    283.317730
PC45 -24501.646243 -11350.730841   7096.117324    -43.109775
PC46   1017.165636 -17996.621957 -21319.855082    -97.329177
PE02  17011.580500  21084.504618 -11904.182139     75.851155
PE03  13635.067768  10142.691829  24224.620668    -71.202364
PE04 -22453.984932   9374.860183 -16855.496436   -250.402159
PE05  -3015.271991  23659.824696  17524.194119     34.383245
PE07  18279.921738 -23277.462661    -98.740919    -86.143464
PE08  22286.018780  -8946.489700  17292.235545   -172.243147
PE09 -18344.346858  23237.671375    -50.898010   -216.626612
PE10 -24819.808190   6123.785897 -14934.488879   -576.512195
PE11 -16096.969472  11885.396356 -21816.002337   3174.431064
PE12 -28870.879894      6.821170  -6511.381796   -764.532037
PE13  16782.513442 -11507.728477  21503.121414    -19.607061
PE15  28970.994292    278.087469   6067.301602    -66.957040
PE19 -11647.139825 -12349.092942 -24250.674388  -1278.938030
PE21  -6790.487968 -28215.466044  -5840.994016   -562.560077
PE24  -8405.768786  18821.942911  21221.927482   -414.583094
PE25   6512.769868  28196.967830   6206.878529     -3.720230
PE26  -5794.222704 -16555.061677  23854.536526    271.896633
PE27   7931.526550 -19294.951231 -21000.031294   -192.171186
PE30  17951.552953   1320.467614 -23502.291563   -637.013297
PE31 -17825.853805   -906.008030  23623.178486     -9.448996
PE33 -23612.620046 -12014.210555  13223.706628      1.717180
PE34  24030.257384  11696.501888 -12706.187025    -76.250902
PE36   5028.003621  16383.943800 -24126.720995   -139.733345
PG01  15477.785806  13977.235497 -16989.604398    163.229369
PG02   9876.447429  14259.622838 -19666.584340   -533.023337
PG03  12216.064549  23196.509492   4456.237332    -34.584437
PG04   7540.240455  13947.357779  21296.027300    204.310956
PG05  -4451.686384 -24597.707310   8659.647835   -149.202266
PG06  20415.639992  -7028.975273  15603.038588    513.889386
PG07  26000.510557   6113.501549   2918.743847     21.606204
PG08     34.852409  20138.383767 -17183.257473   -150.622605
PG09  15728.390677   3776.720832  20988.653138    -12.066137
PG10 -13986.730404   4530.430893 -21937.879713    -60.165526
PG11   8992.135978 -13161.801996  21256.326767   -446.657705
PG12  -9571.242226 -24657.577613   2553.360257   -443.634366
PG13  10600.954830 -21229.032893 -11910.088938    591.883770
PG14  15941.636335   -745.324505 -21228.267069    234.416943
PG16  -2603.868067  22715.978816  12801.160927   -427.419936
PG17  20853.322904 -10278.886035 -12518.884033    723.494176
PG18 -26224.508100  -4789.769289    424.636143   -470.087250
PG19  20626.059345 -15604.415614  -5362.700419    394.658816
PG20   3814.288486 -18952.499738  18337.848956    403.213829
PG21   6811.130525  14832.542195 -20617.645830    145.066882
PG22  12798.691340  -8718.101971 -21164.218173     89.656228
PG23 -17190.175929  -8961.793817 -18227.854693     93.821294
PG24 -11307.007165 -14991.328782 -19328.091859   -363.799829
PG25 -16516.837082 -16312.023190  12824.223090    476.006614
PG26  -8310.013010  15883.509108  19358.375851    218.738545
PG27 -11422.886716  22648.451706  -7360.242105    -65.554929
PG28 -21685.544075   7011.508817  13617.064113    -39.470476
PG29 -14976.038324  -5155.722933  21294.446032   -610.233277
PG30  25548.375041  -1544.390068  -7470.119288   -471.492674
PG31 -14764.637486  11100.627789  19033.148960   -225.427271
PG32 -19933.752885  14165.330358  -9918.917126   -581.945281
PJ02 -25881.229682  25449.889885  26669.750142     -0.090348
PJ03 -33758.938307  17695.467525 -13330.289913     -7.214617
PJ04 -20820.057454  31975.982657 -12931.654252     71.963126
PR01   5707.070332 -24822.943848  -1351.856541     69.150039
PR02  -3042.316682 -18398.406947 -17404.408200    -22.349269
PR03 -10826.338165  -1546.294017 -23002.852028     88.440388
PR04 -12312.656450  15684.759036 -15872.430120    209.793639
PR05  -7339.047025  24412.260064   -134.694881    121.744586
PR07  11113.265337    519.975755  22990.681778     68.428030
PR08  12295.477437 -15916.757439  15766.683903    -73.179070
PR09  16099.782556  19182.488074   5080.375989    151.517343
PR11  12836.824845  -1858.883628 -21956.765686   -210.966482
PR12  -2711.030839 -16142.192781 -19545.601316     33.102757
PR13 -14674.692458 -19566.281721  -7267.032145    -40.957883
PR14 -19456.570044 -11341.655275  11972.783970     25.529907
PR15 -11998.293231   3071.761429  22317.244057     84.921168
PR16   2632.219599  15892.840777  19797.738544     20.333445
PR17 -23244.027853    702.426324  10552.239846     32.099262
PR18 -23381.467676   8186.772411  -5966.265146    110.411183
PR19 -13409.828760  11152.407614 -18611.926931   -253.498580
PR20   8950.843506   8362.987377 -22365.005619   -103.001655
PR21  23481.225541   -943.482733  -9871.453786    -51.000612
PR22  23209.415229  -8004.155169   6967.730557     92.054113
PR24  -9957.410262  -8255.947555  22012.578785    -30.951671
PR25  23246.409126    430.288176 -10453.763545     -6.464565
PR26  12237.599296 -15487.339027  16161.225569    -17.999927
EOF
